STARLINK-30227          
1 57505U 23113L   26068.22529593  .00032605  00000+0  15711-2 0  9993
2 57505  43.0053   4.8681 0002789 225.8359 134.2260 15.18160462143769
LILIUM-3                
1 66770U 25276DJ  26068.70479330  .00003348  00000+0  16353-3 0  9991
2 66770  97.4313 144.1145 0001123 186.7966 173.3253 15.18939749 15326
