[{"OBJECT_NAME":"STARLINK-30227","OBJECT_ID":"2023-113L","EPOCH":"2026-03-09T05:24:25.568352","MEAN_MOTION":15.18160462,"ECCENTRICITY":0.00027892,"INCLINATION":43.0053,"RA_OF_ASC_NODE":4.8681,"ARG_OF_PERICENTER":225.8359,"MEAN_ANOMALY":134.226,"EPHEMERIS_TYPE":0,"CLASSIFICATION_TYPE":"U","NORAD_CAT_ID":57505,"ELEMENT_SET_NO":999,"REV_AT_EPOCH":14376,"BSTAR":0.0015710865,"MEAN_MOTION_DOT":0.00032605,"MEAN_MOTION_DDOT":0},{"OBJECT_NAME":"LILIUM-3","OBJECT_ID":"2025-276DJ","EPOCH":"2026-03-09T16:54:54.141120","MEAN_MOTION":15.18939749,"ECCENTRICITY":0.00011225,"INCLINATION":97.4313,"RA_OF_ASC_NODE":144.1145,"ARG_OF_PERICENTER":186.7966,"MEAN_ANOMALY":173.3253,"EPHEMERIS_TYPE":0,"CLASSIFICATION_TYPE":"U","NORAD_CAT_ID":66770,"ELEMENT_SET_NO":999,"REV_AT_EPOCH":1532,"BSTAR":0.00016352677,"MEAN_MOTION_DOT":3.348e-5,"MEAN_MOTION_DDOT":0}]
